{
  "type": "FeatureCollection",
  "features": [
    {
      "type": "Feature",
      "properties": {
        "norad_id": 34434,
        "name": "COSMOS 2251 DEB",
        "group": "cosmos-2251-debris",
        "lat": -73.66636230061226,
        "lon": -50.80146488715744,
        "alt_km": 993.2928087246319,
        "timestamp": "2025-12-03T04:52:30.032992+00:00",
        "meta_object_name": "COSMOS 2251 DEB",
        "meta_object_id": "1993-036SB",
        "meta_epoch": "2025-12-02T19:31:09.052608",
        "meta_mean_motion": 13.8968557,
        "meta_eccentricity": 0.0276484,
        "meta_inclination": 74.0641,
        "meta_ra_of_asc_node": 27.0055,
        "meta_arg_of_pericenter": 166.565,
        "meta_mean_anomaly": 314.4961,
        "meta_ephemeris_type": 0,
        "meta_classification_type": "U",
        "meta_norad_cat_id": 34434,
        "meta_element_set_no": 999,
        "meta_rev_at_epoch": 83828,
        "meta_bstar": 0.0036767,
        "meta_mean_motion_dot": 6.113e-05,
        "meta_mean_motion_ddot": 0,
        "tle_line1": "1 34434U 93036SB  25336.81329922  .00006113  00000+0  36767-2 0  9995",
        "tle_line2": "2 34434  74.0641  27.0055 0276484 166.5650 314.4961 13.89685570838280"
      },
      "geometry": {
        "type": "Point",
        "coordinates": [
          -50.80146488715744,
          -73.66636230061226
        ]
      }
    },
    {
      "type": "Feature",
      "properties": {
        "norad_id": 34446,
        "name": "COSMOS 2251 DEB",
        "group": "cosmos-2251-debris",
        "lat": -31.774890719751273,
        "lon": -94.62592590837151,
        "alt_km": 696.8906486636315,
        "timestamp": "2025-12-03T04:52:30.033003+00:00",
        "meta_object_name": "COSMOS 2251 DEB",
        "meta_object_id": "1993-036SP",
        "meta_epoch": "2025-12-02T16:17:48.841728",
        "meta_mean_motion": 14.49332195,
        "meta_eccentricity": 0.0051601,
        "meta_inclination": 74.0422,
        "meta_ra_of_asc_node": 76.1475,
        "meta_arg_of_pericenter": 216.4107,
        "meta_mean_anomaly": 143.354,
        "meta_ephemeris_type": 0,
        "meta_classification_type": "U",
        "meta_norad_cat_id": 34446,
        "meta_element_set_no": 999,
        "meta_rev_at_epoch": 88548,
        "meta_bstar": 0.00023118,
        "meta_mean_motion_dot": 8.69e-06,
        "meta_mean_motion_ddot": 0,
        "tle_line1": "1 34446U 93036SP  25336.67903752  .00000869  00000+0  23118-3 0  9990",
        "tle_line2": "2 34446  74.0422  76.1475 0051601 216.4107 143.3540 14.49332195885480"
      },
      "geometry": {
        "type": "Point",
        "coordinates": [
          -94.62592590837151,
          -31.774890719751273
        ]
      }
    },
    {
      "type": "Feature",
      "properties": {
        "norad_id": 34449,
        "name": "COSMOS 2251 DEB",
        "group": "cosmos-2251-debris",
        "lat": -68.04369299166467,
        "lon": -44.96876588323288,
        "alt_km": 600.3135286671677,
        "timestamp": "2025-12-03T04:52:30.033014+00:00",
        "meta_object_name": "COSMOS 2251 DEB",
        "meta_object_id": "1993-036SS",
        "meta_epoch": "2025-12-02T18:39:11.250720",
        "meta_mean_motion": 14.93823339,
        "meta_eccentricity": 0.0024974,
        "meta_inclination": 74.0327,
        "meta_ra_of_asc_node": 90.6345,
        "meta_arg_of_pericenter": 139.9979,
        "meta_mean_anomaly": 344.9369,
        "meta_ephemeris_type": 0,
        "meta_classification_type": "U",
        "meta_norad_cat_id": 34449,
        "meta_element_set_no": 999,
        "meta_rev_at_epoch": 88544,
        "meta_bstar": 0.0042416,
        "meta_mean_motion_dot": 0.00045559,
        "meta_mean_motion_ddot": 0,
        "tle_line1": "1 34449U 93036SS  25336.77721355  .00045559  00000+0  42416-2 0  9997",
        "tle_line2": "2 34449  74.0327  90.6345 0024974 139.9979 344.9369 14.93823339885441"
      },
      "geometry": {
        "type": "Point",
        "coordinates": [
          -44.96876588323288,
          -68.04369299166467
        ]
      }
    },
    {
      "type": "Feature",
      "properties": {
        "norad_id": 34451,
        "name": "COSMOS 2251 DEB",
        "group": "cosmos-2251-debris",
        "lat": -21.082574219554754,
        "lon": -66.5753094890658,
        "alt_km": 581.8821867494244,
        "timestamp": "2025-12-03T04:52:30.033024+00:00",
        "meta_object_name": "COSMOS 2251 DEB",
        "meta_object_id": "1993-036SU",
        "meta_epoch": "2025-12-02T10:18:18.339552",
        "meta_mean_motion": 14.94509424,
        "meta_eccentricity": 0.00259091,
        "meta_inclination": 74.0446,
        "meta_ra_of_asc_node": 108.65,
        "meta_arg_of_pericenter": 135.584,
        "meta_mean_anomaly": 224.7428,
        "meta_ephemeris_type": 0,
        "meta_classification_type": "U",
        "meta_norad_cat_id": 34451,
        "meta_element_set_no": 999,
        "meta_rev_at_epoch": 88481,
        "meta_bstar": 0.0036537809,
        "meta_mean_motion_dot": 0.00039917,
        "meta_mean_motion_ddot": 0,
        "tle_line1": "1 34451U 93036SU  25336.42937893  .00039917  00000+0  36538-2 0  9997",
        "tle_line2": "2 34451  74.0446 108.6500 0025909 135.5840 224.7428 14.94509424884815"
      },
      "geometry": {
        "type": "Point",
        "coordinates": [
          -66.5753094890658,
          -21.082574219554754
        ]
      }
    },
    {
      "type": "Feature",
      "properties": {
        "norad_id": 34452,
        "name": "COSMOS 2251 DEB",
        "group": "cosmos-2251-debris",
        "lat": 74.02597732702661,
        "lon": -67.3263676960012,
        "alt_km": 570.6085676883395,
        "timestamp": "2025-12-03T04:52:30.033035+00:00",
        "meta_object_name": "COSMOS 2251 DEB",
        "meta_object_id": "1993-036SV",
        "meta_epoch": "2025-12-02T19:29:37.451328",
        "meta_mean_motion": 15.11263746,
        "meta_eccentricity": 0.0067407,
        "meta_inclination": 74.0365,
        "meta_ra_of_asc_node": 203.358,
        "meta_arg_of_pericenter": 281.7934,
        "meta_mean_anomaly": 202.3638,
        "meta_ephemeris_type": 0,
        "meta_classification_type": "U",
        "meta_norad_cat_id": 34452,
        "meta_element_set_no": 999,
        "meta_rev_at_epoch": 90512,
        "meta_bstar": 0.0010058,
        "meta_mean_motion_dot": 0.00017873,
        "meta_mean_motion_ddot": 0,
        "tle_line1": "1 34452U 93036SV  25336.81223902  .00017873  00000+0  10058-2 0  9996",
        "tle_line2": "2 34452  74.0365 203.3580 0067407 281.7934 202.3638 15.11263746905121"
      },
      "geometry": {
        "type": "Point",
        "coordinates": [
          -67.3263676960012,
          74.02597732702661
        ]
      }
    },
    {
      "type": "Feature",
      "properties": {
        "norad_id": 34453,
        "name": "COSMOS 2251 DEB",
        "group": "cosmos-2251-debris",
        "lat": 48.04331028615295,
        "lon": -77.82310680923769,
        "alt_km": 400.4512011209763,
        "timestamp": "2025-12-03T04:52:30.033045+00:00",
        "meta_object_name": "COSMOS 2251 DEB",
        "meta_object_id": "1993-036SW",
        "meta_epoch": "2025-12-02T15:58:57.607392",
        "meta_mean_motion": 15.56268869,
        "meta_eccentricity": 0.00180914,
        "meta_inclination": 74.1174,
        "meta_ra_of_asc_node": 121.8249,
        "meta_arg_of_pericenter": 353.4073,
        "meta_mean_anomaly": 6.6903,
        "meta_ephemeris_type": 0,
        "meta_classification_type": "U",
        "meta_norad_cat_id": 34453,
        "meta_element_set_no": 999,
        "meta_rev_at_epoch": 88709,
        "meta_bstar": 0.010942108,
        "meta_mean_motion_dot": 0.00845877,
        "meta_mean_motion_ddot": 0,
        "tle_line1": "1 34453U 93036SW  25336.66594453  .00845877  00000+0  10942-1 0  9996",
        "tle_line2": "2 34453  74.1174 121.8249 0018091 353.4073   6.6903 15.56268869887098"
      },
      "geometry": {
        "type": "Point",
        "coordinates": [
          -77.82310680923769,
          48.04331028615295
        ]
      }
    },
    {
      "type": "Feature",
      "properties": {
        "norad_id": 34454,
        "name": "COSMOS 2251 DEB",
        "group": "cosmos-2251-debris",
        "lat": 72.35265393252942,
        "lon": 51.24433887752629,
        "alt_km": 758.5573365713099,
        "timestamp": "2025-12-03T04:52:30.033055+00:00",
        "meta_object_name": "COSMOS 2251 DEB",
        "meta_object_id": "1993-036SX",
        "meta_epoch": "2025-12-02T06:43:51.827808",
        "meta_mean_motion": 14.38778684,
        "meta_eccentricity": 0.0035144,
        "meta_inclination": 74.0585,
        "meta_ra_of_asc_node": 296.8993,
        "meta_arg_of_pericenter": 1.7244,
        "meta_mean_anomaly": 358.4025,
        "meta_ephemeris_type": 0,
        "meta_classification_type": "U",
        "meta_norad_cat_id": 34454,
        "meta_element_set_no": 999,
        "meta_rev_at_epoch": 87917,
        "meta_bstar": 0.00037417,
        "meta_mean_motion_dot": 1.132e-05,
        "meta_mean_motion_ddot": 0,
        "tle_line1": "1 34454U 93036SX  25336.28046097  .00001132  00000+0  37417-3 0  9997",
        "tle_line2": "2 34454  74.0585 296.8993 0035144   1.7244 358.4025 14.38778684879177"
      },
      "geometry": {
        "type": "Point",
        "coordinates": [
          51.24433887752629,
          72.35265393252942
        ]
      }
    }
  ]
}